GLOBALSTAR M094         
1 39074U 13005C   25230.65303113 -.00000103  00000+0  52037-5 0  9992
2 39074  51.9985 351.9277 0000885  87.6247 272.4721 12.62268890580261
GLOBALSTAR M096         
1 39075U 13005D   25230.74528720 -.00000104  00000+0 -38503-6 0  9991
2 39075  52.0084  40.2077 0000978  72.9166 287.1807 12.62266155579190
GLOBALSTAR M078         
1 39076U 13005E   25230.87744988 -.00000090  00000+0  79044-4 0  9998
2 39076  51.9867 124.2334 0000912 357.8968   2.1894 12.62261336577836
GLOBALSTAR M087         
1 52888U 22064A   25230.83906591 -.00000081  00000+0  12955-3 0  9992
2 52888  51.9977 262.9487 0000297  76.2026 283.8873 12.62300967152957
